[{"CCSDS_OMM_VERS":"3.0","COMMENT":"GENERATED VIA SPACE-TRACK.ORG API","CREATION_DATE":"2016-03-22T15:39:44","ORIGINATOR":"18 SPCS","OBJECT_NAME":"COSMOS 2251 DEB","OBJECT_ID":"1993-036BTU","CENTER_NAME":"EARTH","REF_FRAME":"TEME","TIME_SYSTEM":"UTC","MEAN_ELEMENT_THEORY":"SGP4","EPOCH":"2013-11-19T12:06:35.111520","MEAN_MOTION":"14.47719719","ECCENTRICITY":"0.00201480","INCLINATION":"74.0479","RA_OF_ASC_NODE":"24.1673","ARG_OF_PERICENTER":"190.5642","MEAN_ANOMALY":"152.7147","EPHEMERIS_TYPE":"0","CLASSIFICATION_TYPE":"U","NORAD_CAT_ID":"38484","ELEMENT_SET_NO":"999","REV_AT_EPOCH":"20812","BSTAR":"0.00066926000000","MEAN_MOTION_DOT":"0.00002451","MEAN_MOTION_DDOT":"0.0000000000000","SEMIMAJOR_AXIS":"7111.242","PERIOD":"99.466","APOAPSIS":"747.435","PERIAPSIS":"718.780","OBJECT_TYPE":"DEBRIS","RCS_SIZE":"SMALL","COUNTRY_CODE":"CIS","LAUNCH_DATE":"1993-06-16","SITE":"PKMTR","DECAY_DATE":"2023-11-08","FILE":"2010397","GP_ID":"103979824","TLE_LINE0":"0 COSMOS 2251 DEB","TLE_LINE1":"1 38484U 93036BTU 13323.50457305 +.00002451 +00000-0 +66926-3 0  9993","TLE_LINE2":"2 38484 074.0479 024.1673 0020148 190.5642 152.7147 14.47719719208125"},{"CCSDS_OMM_VERS":"3.0","COMMENT":"GENERATED VIA SPACE-TRACK.ORG API","CREATION_DATE":"2025-11-18T18:34:43","ORIGINATOR":"18 SPCS","OBJECT_NAME":"COSMOS 2251 DEB","OBJECT_ID":"1993-036BTV","CENTER_NAME":"EARTH","REF_FRAME":"TEME","TIME_SYSTEM":"UTC","MEAN_ELEMENT_THEORY":"SGP4","EPOCH":"2025-11-14T09:18:27.993600","MEAN_MOTION":"15.68613644","ECCENTRICITY":"0.00102471","INCLINATION":"73.9810","RA_OF_ASC_NODE":"194.9886","ARG_OF_PERICENTER":"147.6012","MEAN_ANOMALY":"212.5842","EPHEMERIS_TYPE":"0","CLASSIFICATION_TYPE":"U","NORAD_CAT_ID":"38485","ELEMENT_SET_NO":"999","REV_AT_EPOCH":"17189","BSTAR":"0.00802132300000","MEAN_MOTION_DOT":"0.01011848","MEAN_MOTION_DDOT":"0.0000000000000","SEMIMAJOR_AXIS":"6741.003","PERIOD":"91.801","APOAPSIS":"369.775","PERIAPSIS":"355.960","OBJECT_TYPE":"DEBRIS","RCS_SIZE":"SMALL","COUNTRY_CODE":"CIS","LAUNCH_DATE":"1993-06-16","SITE":"PKMTR","DECAY_DATE":"2025-11-23","FILE":"4887978","GP_ID":"302891717","TLE_LINE0":"0 COSMOS 2251 DEB","TLE_LINE1":"1 38485U 93036BTV 25318.38782400  .01011848  00000-0  80213-2 0  9999","TLE_LINE2":"2 38485  73.9810 194.9886 0010247 147.6012 212.5842 15.68613644171892"},{"CCSDS_OMM_VERS":"3.0","COMMENT":"GENERATED VIA SPACE-TRACK.ORG API","CREATION_DATE":"2026-03-28T11:26:42","ORIGINATOR":"18 SPCS","OBJECT_NAME":"COSMOS 2251 DEB","OBJECT_ID":"1993-036BTW","CENTER_NAME":"EARTH","REF_FRAME":"TEME","TIME_SYSTEM":"UTC","MEAN_ELEMENT_THEORY":"SGP4","EPOCH":"2026-03-28T00:16:17.718816","MEAN_MOTION":"14.77341517","ECCENTRICITY":"0.00309215","INCLINATION":"73.9398","RA_OF_ASC_NODE":"357.8233","ARG_OF_PERICENTER":"125.8507","MEAN_ANOMALY":"245.6082","EPHEMERIS_TYPE":"0","CLASSIFICATION_TYPE":"U","NORAD_CAT_ID":"38486","ELEMENT_SET_NO":"999","REV_AT_EPOCH":"76987","BSTAR":"0.00217925830000","MEAN_MOTION_DOT":"0.00015610","MEAN_MOTION_DDOT":"0.0000000000000","SEMIMAJOR_AXIS":"7015.865","PERIOD":"97.472","APOAPSIS":"659.424","PERIAPSIS":"616.036","OBJECT_TYPE":"DEBRIS","RCS_SIZE":"SMALL","COUNTRY_CODE":"CIS","LAUNCH_DATE":"1993-06-16","SITE":"PKMTR","DECAY_DATE":null,"FILE":"5103506","GP_ID":"317399779","TLE_LINE0":"0 COSMOS 2251 DEB","TLE_LINE1":"1 38486U 93036BTW 26087.01131619  .00015610  00000-0  21793-2 0  9992","TLE_LINE2":"2 38486  73.9398 357.8233 0030921 125.8507 245.6082 14.77341517769878"},{"CCSDS_OMM_VERS":"3.0","COMMENT":"GENERATED VIA SPACE-TRACK.ORG API","CREATION_DATE":"2026-03-28T16:36:19","ORIGINATOR":"18 SPCS","OBJECT_NAME":"COSMOS 2251 DEB","OBJECT_ID":"1993-036BTX","CENTER_NAME":"EARTH","REF_FRAME":"TEME","TIME_SYSTEM":"UTC","MEAN_ELEMENT_THEORY":"SGP4","EPOCH":"2026-03-28T11:55:42.057120","MEAN_MOTION":"15.29621125","ECCENTRICITY":"0.00262420","INCLINATION":"73.9685","RA_OF_ASC_NODE":"170.2142","ARG_OF_PERICENTER":"309.1437","MEAN_ANOMALY":"50.7433","EPHEMERIS_TYPE":"0","CLASSIFICATION_TYPE":"U","NORAD_CAT_ID":"38487","ELEMENT_SET_NO":"999","REV_AT_EPOCH":"68410","BSTAR":"0.00240800000000","MEAN_MOTION_DOT":"0.00070469","MEAN_MOTION_DDOT":"0.0000000000000","SEMIMAJOR_AXIS":"6855.081","PERIOD":"94.141","APOAPSIS":"494.935","PERIAPSIS":"458.957","OBJECT_TYPE":"DEBRIS","RCS_SIZE":"SMALL","COUNTRY_CODE":"CIS","LAUNCH_DATE":"1993-06-16","SITE":"PKMTR","DECAY_DATE":null,"FILE":"5103625","GP_ID":"317422916","TLE_LINE0":"0 COSMOS 2251 DEB","TLE_LINE1":"1 38487U 93036BTX 26087.49701455  .00070469  00000-0  24080-2 0  9991","TLE_LINE2":"2 38487  73.9685 170.2142 0026242 309.1437  50.7433 15.29621125684105"},{"CCSDS_OMM_VERS":"3.0","COMMENT":"GENERATED VIA SPACE-TRACK.ORG API","CREATION_DATE":"2026-02-25T03:08:45","ORIGINATOR":"18 SPCS","OBJECT_NAME":"COSMOS 2251 DEB","OBJECT_ID":"1993-036BTY","CENTER_NAME":"EARTH","REF_FRAME":"TEME","TIME_SYSTEM":"UTC","MEAN_ELEMENT_THEORY":"SGP4","EPOCH":"2026-02-24T18:30:19.329120","MEAN_MOTION":"14.71359668","ECCENTRICITY":"0.00577032","INCLINATION":"74.0411","RA_OF_ASC_NODE":"81.3577","ARG_OF_PERICENTER":"169.1149","MEAN_ANOMALY":"309.3953","EPHEMERIS_TYPE":"0","CLASSIFICATION_TYPE":"U","NORAD_CAT_ID":"39109","ELEMENT_SET_NO":"999","REV_AT_EPOCH":"66262","BSTAR":"0.00037457225000","MEAN_MOTION_DOT":"0.00002345","MEAN_MOTION_DDOT":"0.0000000000000","SEMIMAJOR_AXIS":"7034.868","PERIOD":"97.869","APOAPSIS":"697.326","PERIAPSIS":"616.139","OBJECT_TYPE":"DEBRIS","RCS_SIZE":"SMALL","COUNTRY_CODE":"CIS","LAUNCH_DATE":"1993-06-16","SITE":"PKMTR","DECAY_DATE":null,"FILE":"5052414","GP_ID":"313882908","TLE_LINE0":"0 COSMOS 2251 DEB","TLE_LINE1":"1 39109U 93036BTY 26055.77105705  .00002345  00000-0  37457-3 0  9996","TLE_LINE2":"2 39109  74.0411  81.3577 0057703 169.1149 309.3953 14.71359668662629"},{"CCSDS_OMM_VERS":"3.0","COMMENT":"GENERATED VIA SPACE-TRACK.ORG API","CREATION_DATE":"2026-01-06T10:30:26","ORIGINATOR":"18 SPCS","OBJECT_NAME":"COSMOS 2251 DEB","OBJECT_ID":"1993-036BTZ","CENTER_NAME":"EARTH","REF_FRAME":"TEME","TIME_SYSTEM":"UTC","MEAN_ELEMENT_THEORY":"SGP4","EPOCH":"2025-12-17T22:04:59.920608","MEAN_MOTION":"14.72312917","ECCENTRICITY":"0.00974462","INCLINATION":"73.9594","RA_OF_ASC_NODE":"51.3776","ARG_OF_PERICENTER":"282.6592","MEAN_ANOMALY":"255.1600","EPHEMERIS_TYPE":"0","CLASSIFICATION_TYPE":"U","NORAD_CAT_ID":"39110","ELEMENT_SET_NO":"999","REV_AT_EPOCH":"62560","BSTAR":"0.00029099644000","MEAN_MOTION_DOT":"0.00001945","MEAN_MOTION_DDOT":"0.0000000000000","SEMIMAJOR_AXIS":"7031.831","PERIOD":"97.805","APOAPSIS":"722.219","PERIAPSIS":"585.174","OBJECT_TYPE":"DEBRIS","RCS_SIZE":"SMALL","COUNTRY_CODE":"CIS","LAUNCH_DATE":"1993-06-16","SITE":"PKMTR","DECAY_DATE":null,"FILE":"4959107","GP_ID":"308117209","TLE_LINE0":"0 COSMOS 2251 DEB","TLE_LINE1":"1 39110U 93036BTZ 25351.92013797  .00001945  00000-0  29100-3 0  9993","TLE_LINE2":"2 39110  73.9594  51.3776 0097446 282.6592 255.1600 14.72312917625601"},{"CCSDS_OMM_VERS":"3.0","COMMENT":"GENERATED VIA SPACE-TRACK.ORG API","CREATION_DATE":"2025-12-06T06:00:24","ORIGINATOR":"18 SPCS","OBJECT_NAME":"COSMOS 2251 DEB","OBJECT_ID":"1993-036BUA","CENTER_NAME":"EARTH","REF_FRAME":"TEME","TIME_SYSTEM":"UTC","MEAN_ELEMENT_THEORY":"SGP4","EPOCH":"2025-12-01T22:58:55.551360","MEAN_MOTION":"15.11912111","ECCENTRICITY":"0.00109111","INCLINATION":"74.0059","RA_OF_ASC_NODE":"63.5328","ARG_OF_PERICENTER":"39.1207","MEAN_ANOMALY":"321.0773","EPHEMERIS_TYPE":"0","CLASSIFICATION_TYPE":"U","NORAD_CAT_ID":"39111","ELEMENT_SET_NO":"999","REV_AT_EPOCH":"8982","BSTAR":"0.00564241190000","MEAN_MOTION_DOT":"0.00098096","MEAN_MOTION_DDOT":"0.0000000000000","SEMIMAJOR_AXIS":"6908.506","PERIOD":"95.244","APOAPSIS":"537.909","PERIAPSIS":"522.833","OBJECT_TYPE":"DEBRIS","RCS_SIZE":"SMALL","COUNTRY_CODE":"CIS","LAUNCH_DATE":"1993-06-16","SITE":"PKMTR","DECAY_DATE":null,"FILE":"4918504","GP_ID":"304573325","TLE_LINE0":"0 COSMOS 2251 DEB","TLE_LINE1":"1 39111U 93036BUA 25335.95758740  .00098096  00000-0  56424-2 0  9994","TLE_LINE2":"2 39111  74.0059  63.5328 0010911  39.1207 321.0773 15.11912111 89826"},{"CCSDS_OMM_VERS":"3.0","COMMENT":"GENERATED VIA SPACE-TRACK.ORG API","CREATION_DATE":"2025-03-21T14:16:17","ORIGINATOR":"18 SPCS","OBJECT_NAME":"COSMOS 2251 DEB","OBJECT_ID":"1993-036BUB","CENTER_NAME":"EARTH","REF_FRAME":"TEME","TIME_SYSTEM":"UTC","MEAN_ELEMENT_THEORY":"SGP4","EPOCH":"2022-09-02T20:20:02.055264","MEAN_MOTION":"14.05688482","ECCENTRICITY":"0.02002950","INCLINATION":"73.9365","RA_OF_ASC_NODE":"66.3687","ARG_OF_PERICENTER":"232.0470","MEAN_ANOMALY":"192.7781","EPHEMERIS_TYPE":"0","CLASSIFICATION_TYPE":"U","NORAD_CAT_ID":"39545","ELEMENT_SET_NO":"999","REV_AT_EPOCH":"56075","BSTAR":"0.00090195000000","MEAN_MOTION_DOT":"0.00001736","MEAN_MOTION_DDOT":"0.0000000000000","SEMIMAJOR_AXIS":"7252.300","PERIOD":"102.441","APOAPSIS":"1019.425","PERIAPSIS":"728.905","OBJECT_TYPE":"DEBRIS","RCS_SIZE":"SMALL","COUNTRY_CODE":"CIS","LAUNCH_DATE":"1993-06-16","SITE":"PKMTR","DECAY_DATE":null,"FILE":"4675889","GP_ID":"283644838","TLE_LINE0":"0 COSMOS 2251 DEB","TLE_LINE1":"1 39545U 93036BUB 22245.84724601  .00001736  00000-0  90195-3 0  9998","TLE_LINE2":"2 39545  73.9365  66.3687 0200295 232.0470 192.7781 14.05688482560757"}]